SL-3 R/B                
1 19046U 88032B   26080.58241217  .00006147  00000+0  28593-3 0  9994
2 19046  97.5210  63.7933 0025522 188.3927 171.6885 15.20034782 53917
SL-16 R/B               
1 19120U 88039B   26080.60663597 -.00000127  00000+0 -36986-4 0  9996
2 19120  71.0154  43.3473 0023347 317.1390  42.7915 14.19617761960073
COSMOS 1953             
1 19210U 88050A   26080.60487691  .00009252  00000+0  32958-3 0  9998
2 19210  82.5083 146.2630 0012657  85.3613 274.9072 15.28707911 39600
SL-8 R/B                
1 19257U 88053B   26080.48590765  .00000316  00000+0  11072-3 0  9991
2 19257  74.0450  90.7204 0021540 268.4666 205.5772 14.38923655978297
COSMOS 1975             
1 19573U 88093A   26080.57681948  .00007478  00000+0  27013-3 0  9998
2 19573  82.5160 105.7484 0013105 124.6727 235.5750 15.28220029 21222
SL-14 R/B               
1 19574U 88093B   26080.60451452  .00000559  00000+0  61495-4 0  9994
2 19574  82.5329  30.8597 0020765   3.2803 170.2082 14.85670452  2784
SL-16 R/B               
1 19650U 88102B   26080.55966476 -.00000189  00000+0 -71162-4 0  9994
2 19650  70.9986 126.5225 0014800 343.1373  16.9256 14.16155551928576
INTERCOSMOS 24          
1 20261U 89080A   26080.47886443  .00000565  00000+0  16799-3 0  9996
2 20261  82.6016  96.7251 1186711 265.4286  81.0626 12.59574068668284
SL-14 R/B               
1 20262U 89080C   26080.15863540  .00000390  00000+0  11011-3 0  9993
2 20262  82.5967 165.8267 1230826 158.5457 207.2223 12.50505429661580
DELTA 1 R/B             
1 20323U 89089B   26080.55362059  .00000345  00000+0  93578-4 0  9992
2 20323  97.0696 286.1045 0070704  85.2308 275.6960 14.50672840897454
ARIANE 40 R/B           
1 20443U 90005H   26080.14055355  .00000198  00000+0  76509-4 0  9999
2 20443  98.3058 140.4595 0010570 164.1162 196.0360 14.39877284894458
DELTA 2 R/B(1)          
1 20453U 90008B   26080.43139945  .00084489  00000+0  94669-3 0  9994
2 20453  35.6026  97.7047 0080905   7.6483 352.5469 15.57426832927962
